NORAD_CAT_ID,OBJECT_NAME,OBJECT_TYPE,EPOCH,MEAN_MOTION,ECCENTRICITY,INCLINATION,RA_OF_ASC_NODE,ARG_OF_PERICENTER,MEAN_ANOMALY,BSTAR,MEAN_MOTION_DOT,MEAN_MOTION_DDOT,TLE_LINE0,TLE_LINE1,TLE_LINE2,SEMIMAJOR_AXIS,PERIOD,APOGEE,PERIGEE,DECAYED
52535.0,STARLINK-3958,PAYLOAD,2023-11-10 02:54:43,15.08846427,0.0001403,53.2184,347.4715,104.9854,255.1294,-0.00021527,-3.713e-05,0.0,0 STARLINK-3958,1 52535U 22051C   23314.12133110 -.00003713  00000-0 -21527-3 0  9991,2 52535  53.2184 347.4715 0001403 104.9854 255.1294 15.08846427 83100,6917.861,95.437,540.696,538.755,0.0
52535.0,STARLINK-3958,PAYLOAD,2023-11-10 09:16:15,15.08852626,0.0001488,53.2181,346.2846,93.4484,266.6678,-4.8671e-05,-1.063e-05,0.0,0 STARLINK-3958,1 52535U 22051C   23314.38628789 -.00001063  00000-0 -48671-4 0  9996,2 52535  53.2181 346.2846 0001488  93.4484 266.6678 15.08852626 83070,6917.842,95.437,540.736,538.677,0.0
52535.0,STARLINK-3958,PAYLOAD,2023-11-11 02:45:29,15.08841314,0.0001513,53.2178,343.0146,107.0215,253.0943,-0.0001414,-2.538e-05,0.0,0 STARLINK-3958,1 52535U 22051C   23315.11493038 -.00002538  00000-0 -14140-3 0  9996,2 52535  53.2178 343.0146 0001513 107.0215 253.0943 15.08841314 83254,6917.876,95.437,540.788,538.695,0.0
52535.0,STARLINK-3958,PAYLOAD,2023-11-11 07:31:39,15.08842042,0.0001505,53.2174,342.1228,97.2954,262.8209,-6.3945e-05,-1.306e-05,0.0,0 STARLINK-3958,1 52535U 22051C   23315.31365076 -.00001306  00000-0 -63945-4 0  9998,2 52535  53.2174 342.1228 0001505  97.2954 262.8209 15.08842042 83210,6917.874,95.437,540.78,538.698,0.0
52535.0,STARLINK-3958,PAYLOAD,2023-11-11 18:39:21,15.08840584,0.0001471,53.2171,340.0409,98.4614,261.6545,5.6641e-05,6.14e-06,0.0,0 STARLINK-3958,1 52535U 22051C   23315.77733249  .00000614  00000-0  56641-4 0  9993,2 52535  53.2171 340.0409 0001471  98.4614 261.6545 15.08840584 83289,6917.879,95.438,540.761,538.726,0.0
52535.0,STARLINK-3958,PAYLOAD,2023-11-12 10:33:12,15.08846331,0.0001567,53.2176,337.0633,89.4041,270.7131,0.00018471,2.653e-05,0.0,0 STARLINK-3958,1 52535U 22051C   23316.43973069  .00002653  00000-0  18471-3 0  9996,2 52535  53.2176 337.0633 0001567  89.4041 270.7131 15.08846331 83456,6917.861,95.437,540.81,538.642,0.0
52535.0,STARLINK-3958,PAYLOAD,2023-11-12 18:30:08,15.08842484,0.0001798,53.2176,335.5769,84.9396,275.1801,6.1161e-05,6.85e-06,0.0,0 STARLINK-3958,1 52535U 22051C   23316.77093255  .00000685  00000-0  61161-4 0  9991,2 52535  53.2176 335.5769 0001798  84.9396 275.1801 15.08842484 83434,6917.873,95.437,540.982,538.494,0.0
52535.0,STARLINK-3958,PAYLOAD,2023-11-13 10:24:00,15.08843475,0.0001608,53.2175,332.604,82.8692,277.2483,0.00015857,2.237e-05,0.0,0 STARLINK-3958,1 52535U 22051C   23317.43333354  .00002237  00000-0  15857-3 0  9997,2 52535  53.2175 332.6040 0001608  82.8692 277.2483 15.08843475 83608,6917.87,95.437,540.847,538.622,0.0
52535.0,STARLINK-3958,PAYLOAD,2023-11-13 18:20:55,15.0884464,0.0001562,53.2174,331.1194,86.1438,273.9733,0.00015835,2.233e-05,0.0,0 STARLINK-3958,1 52535U 22051C   23317.76453290  .00002233  00000-0  15835-3 0  9997,2 52535  53.2174 331.1194 0001562  86.1438 273.9733 15.08844640 83588,6917.866,95.437,540.812,538.651,0.0
52535.0,STARLINK-3958,PAYLOAD,2023-11-14 10:14:46,15.08851401,0.0001413,53.2164,328.1412,96.2212,263.8941,0.00015018,2.104e-05,0.0,0 STARLINK-3958,1 52535U 22051C   23318.42692716  .00002104  00000-0  15018-3 0  9999,2 52535  53.2164 328.1412 0001413  96.2212 263.8941 15.08851401 83686,6917.846,95.437,540.688,538.733,0.0
52535.0,STARLINK-3958,PAYLOAD,2023-11-14 18:11:42,15.08838318,0.0001784,53.2187,326.6548,85.991,274.1286,3.0109e-05,1.91e-06,0.0,0 STARLINK-3958,1 52535U 22051C   23318.75813595  .00000191  00000-0  30109-4 0  9998,2 52535  53.2187 326.6548 0001784  85.9910 274.1286 15.08838318 83808,6917.886,95.438,540.985,538.516,0.0
52535.0,STARLINK-3958,PAYLOAD,2023-11-15 06:54:48,15.08838043,0.0001505,53.2165,324.277,90.4541,269.6623,4.3789e-05,4.09e-06,0.0,0 STARLINK-3958,1 52535U 22051C   23319.28805664  .00000409  00000-0  43789-4 0  9995,2 52535  53.2165 324.2770 0001505  90.4541 269.6623 15.08838043 83817,6917.886,95.438,540.793,538.71,0.0
52535.0,STARLINK-3958,PAYLOAD,2023-11-16 00:24:02,15.08841403,0.0001556,53.217,321.0063,88.9271,271.19,0.00014819,2.071e-05,0.0,0 STARLINK-3958,1 52535U 22051C   23320.01669713  .00002071  00000-0  14819-3 0  9999,2 52535  53.2170 321.0063 0001556  88.9271 271.1900 15.08841403 83990,6917.876,95.437,540.818,538.665,0.0
52535.0,STARLINK-3958,PAYLOAD,2023-11-16 06:45:35,15.08844849,0.0001522,53.2173,319.8175,88.183,271.9336,0.00017281,2.464e-05,0.0,0 STARLINK-3958,1 52535U 22051C   23320.28165564  .00002464  00000-0  17281-3 0  9995,2 52535  53.2173 319.8175 0001522  88.1830 271.9336 15.08844849 83963,6917.866,95.437,540.783,538.678,0.0
52535.0,STARLINK-3958,PAYLOAD,2023-11-17 00:14:49,15.08838953,0.0001556,53.2168,316.5454,90.8911,269.226,0.00013414,1.847e-05,0.0,0 STARLINK-3958,1 52535U 22051C   23321.01029906  .00001847  00000-0  13414-3 0  9994,2 52535  53.2168 316.5454 0001556  90.8911 269.2260 15.08838953 84144,6917.884,95.438,540.825,538.672,0.0
52535.0,STARLINK-3958,PAYLOAD,2023-11-17 06:36:22,15.0884094,0.0001568,53.217,315.3557,93.5254,266.5917,0.00015716,2.214e-05,0.0,0 STARLINK-3958,1 52535U 22051C   23321.27525828  .00002214  00000-0  15716-3 0  9992,2 52535  53.2170 315.3557 0001568  93.5254 266.5917 15.08840940 84116,6917.878,95.437,540.827,538.658,0.0
52535.0,STARLINK-3958,PAYLOAD,2023-11-17 16:08:41,15.08838555,0.0001577,53.2172,313.572,93.8715,266.2457,7.9285e-05,9.74e-06,0.0,0 STARLINK-3958,1 52535U 22051C   23321.67269958  .00000974  00000-0  79285-4 0  9998,2 52535  53.2172 313.5720 0001577  93.8715 266.2457 15.08838555 84176,6917.885,95.438,540.841,538.659,0.0
52535.0,STARLINK-3958,PAYLOAD,2023-11-18 03:16:23,15.08836589,0.0001684,53.2181,311.4915,96.1938,263.9246,4.1918e-06,-2.21e-06,0.0,0 STARLINK-3958,1 52535U 22051C   23322.13638130 -.00000221  00000-0  41918-5 0  9991,2 52535  53.2181 311.4915 0001684  96.1938 263.9246 15.08836589 84312,6917.891,95.438,540.921,538.591,0.0
52535.0,STARLINK-3958,PAYLOAD,2023-11-18 06:27:09,15.08839267,0.0001581,53.2187,310.8985,95.9607,264.1566,5.9487e-05,6.59e-06,0.0,0 STARLINK-3958,1 52535U 22051C   23322.26886243  .00000659  00000-0  59487-4 0  9998,2 52535  53.2187 310.8985 0001581  95.9607 264.1566 15.08839267 84262,6917.883,95.438,540.841,538.654,0.0
52535.0,STARLINK-3958,PAYLOAD,2023-11-18 15:59:28,15.08840035,0.0001569,53.2184,309.1134,91.7189,268.3983,4.3526e-05,4.05e-06,0.0,0 STARLINK-3958,1 52535U 22051C   23322.66630238  .00000405  00000-0  43526-4 0  9999,2 52535  53.2184 309.1134 0001569  91.7189 268.3983 15.08840035 84322,6917.88,95.438,540.831,538.66,0.0
52535.0,STARLINK-3958,PAYLOAD,2023-11-19 09:28:42,15.08847754,0.0001605,53.2174,305.8409,94.7575,265.36,0.00011724,1.579e-05,0.0,0 STARLINK-3958,1 52535U 22051C   23323.39493633  .00001579  00000-0  11724-3 0  9993,2 52535  53.2174 305.8409 0001605  94.7575 265.3600 15.08847754 84500,6917.857,95.437,540.832,538.611,0.0
52535.0,STARLINK-3958,PAYLOAD,2023-11-20 02:57:57,15.08838912,0.0001769,53.2176,302.5705,109.4382,250.6801,0.00013423,1.849e-05,0.0,0 STARLINK-3958,1 52535U 22051C   23324.12358167  .00001849  00000-0  13423-3 0  9995,2 52535  53.2176 302.5705 0001769 109.4382 250.6801 15.08838912 84614,6917.884,95.438,540.972,538.525,0.0
52535.0,STARLINK-3958,PAYLOAD,2023-11-20 10:54:52,15.08847881,0.0001561,53.2171,301.082,85.9543,274.1628,0.00015572,2.192e-05,0.0,0 STARLINK-3958,1 52535U 22051C   23324.45477626  .00002192  00000-0  15572-3 0  9992,2 52535  53.2171 301.0820 0001561  85.9543 274.1628 15.08847881 84598,6917.856,95.437,540.801,538.641,0.0
52535.0,STARLINK-3958,PAYLOAD,2023-11-21 02:48:44,15.0884273,0.0001692,53.2176,298.1077,88.2338,271.8848,5.3464e-05,5.63e-06,0.0,0 STARLINK-3958,1 52535U 22051C   23325.11717810  .00000563  00000-0  53464-4 0  9991,2 52535  53.2176 298.1077 0001692  88.2338 271.8848 15.08842730 84761,6917.872,95.437,540.908,538.567,0.0
52535.0,STARLINK-3958,PAYLOAD,2023-11-21 07:34:53,15.0884632,0.0002054,53.2184,297.2143,100.8604,259.2619,0.00020976,3.052e-05,0.0,0 STARLINK-3958,1 52535U 22051C   23325.31589650  .00003052  00000-0  20976-3 0  9999,2 52535  53.2184 297.2143 0002054 100.8604 259.2619 15.08846320 84725,6917.861,95.437,541.147,538.305,0.0
52535.0,STARLINK-3958,PAYLOAD,2023-11-22 04:14:54,15.08844162,0.0001705,53.2184,293.3488,96.1742,263.9444,7.9504e-05,9.78e-06,0.0,0 STARLINK-3958,1 52535U 22051C   23326.17701799  .00000978  00000-0  79504-4 0  9990,2 52535  53.2184 293.3488 0001705  96.1742 263.9444 15.08844162 84928,6917.868,95.437,540.912,538.553,0.0
52535.0,STARLINK-3958,PAYLOAD,2023-11-23 02:30:18,15.08847186,0.0001827,53.2184,289.1822,118.1859,241.9317,0.00015242,2.139e-05,0.0,0 STARLINK-3958,1 52535U 22051C   23327.10437548  .00002139  00000-0  15242-3 0  9991,2 52535  53.2184 289.1822 0001827 118.1859 241.9317 15.08847186 84993,6917.858,95.437,540.987,538.46,0.0
52535.0,STARLINK-3958,PAYLOAD,2023-11-23 21:34:56,15.08836574,0.000153,53.2171,285.6193,107.2169,252.8991,3.1101e-05,2.07e-06,0.0,0 STARLINK-3958,1 52535U 22051C   23327.89926258  .00000207  00000-0  31101-4 0  9995,2 52535  53.2171 285.6193 0001530 107.2169 252.8991 15.08836574 85118,6917.891,95.438,540.814,538.697,0.0
52535.0,STARLINK-3958,PAYLOAD,2023-11-24 03:56:28,15.08835968,0.0001539,53.2182,284.4275,115.8038,244.3113,2.9991e-06,-2.4e-06,0.0,0 STARLINK-3958,1 52535U 22051C   23328.16422392 -.00000240  00000-0  29991-5 0  9999,2 52535  53.2182 284.4275 0001539 115.8038 244.3113 15.08835968 85227,6917.893,95.438,540.822,538.693,0.0
52535.0,STARLINK-3958,PAYLOAD,2023-11-24 07:07:15,15.08836712,0.0001585,53.2183,283.8326,118.691,241.4242,6.8908e-06,-1.78e-06,0.0,0 STARLINK-3958,1 52535U 22051C   23328.29670362 -.00000178  00000-0  68908-5 0  9996,2 52535  53.2183 283.8326 0001585 118.6910 241.4242 15.08836712 85172,6917.89,95.438,540.852,538.659,0.0
